OCEANSAT-2              
1 35931U 09051A   26194.50642520 -.00000123  00000+0 -58533-4 0  9997
2 35931  98.2319 178.7302 0017234 158.3586 201.8313 13.99656213883019
WORLDVIEW-2 (WV-2)      
1 35946U 09055A   26194.46726279  .00000033  00000+0  25432-4 0  9996
2 35946  98.4757 267.5591 0005246 134.0618 226.1001 14.37906614879427
SMOS                    
1 36036U 09059A   26194.45897031  .00000149  00000+0  61579-4 0  9995
2 36036  98.4427  21.4088 0001141  95.9722 264.1596 14.39735473877234
YAOGAN-7                
1 36110U 09069A   26194.15283378  .00000230  00000+0  39107-4 0  9992
2 36110  98.0036  79.8556 0023624 318.2451  41.6956 14.78034391893461
TANDEM-X                
1 36605U 10030A   26188.47915494  .00000386  00000+0  21566-4 0  9992
2 36605  97.4457 195.8973 0001887  94.3019 265.8431 15.19154052889726
CARTOSAT-2B             
1 36795U 10035A   26194.46063971  .00000652  00000+0  96168-4 0  9993
2 36795  97.9947 244.8402 0012590 104.2323 256.0287 14.78617577863733
YAOGAN-10               
1 36834U 10038A   26194.50662806  .00001149  00000+0  13966-3 0  9993
2 36834  97.8972 217.7008 0001595  83.5669  75.6864 14.85425926861119
COSMO-SKYMED 4          
1 37216U 10060A   26194.50280784 -.00000151  00000+0 -12446-4 0  9991
2 37216  97.8890  17.7220 0001497  86.0401 274.0983 14.82147262848461
RESOURCESAT-2           
1 37387U 11015A   26194.48257056  .00000035  00000+0  36018-4 0  9994
2 37387  98.7633 261.7411 0011501 175.8884 184.2390 14.21605639789915
HAIYANG-2A              
1 37781U 11043A   26194.32679574  .00000345  00000+0  41789-3 0  9993
2 37781  99.3398 196.4058 0002847  35.8329 324.3010 13.73482656750249
RASAT                   
1 37791U 11044D   26194.55181925 -.00000022  00000+0  47038-5 0  9996
2 37791  98.0584 285.5467 0021890 107.5902 310.5252 14.68190797797052
SRMSAT                  
1 37841U 11058D   26194.45621950  .00000344  00000+0  42889-4 0  9997
2 37841  19.9713 260.4725 0011811 132.1672 338.6137 14.11580880761534
PLEIADES 1A             
1 38012U 11076F   26194.48124354  .00000252  00000+0  63970-4 0  9999
2 38012  98.1976 269.2297 0001715  81.2560  45.3678 14.58546710775822
ZIYUAN 1-02C (ZY 1-02C) 
1 38038U 11079A   26194.52230221  .00000573  00000+0  20266-3 0  9992
2 38038  98.4069 261.2791 0005477 220.3981 253.1944 14.38235960762998
ARIRANG-3 (KOMPSAT-3)   
1 38338U 12025B   26194.51513361  .00000187  00000+0  46286-4 0  9997
2 38338  98.1184 151.5231 0006318  43.2876 316.8821 14.62228176755199
EXACTVIEW-1 (ADS-1B)    
1 38709U 12039C   26193.86946490  .00000033  00000+0  33754-4 0  9990
2 38709  98.9801 311.8429 0011950  97.5787 262.6750 14.24991882726361
SPOT 6                  
1 38755U 12047A   26194.47250314  .00000183  00000+0  49267-4 0  9993
2 38755  98.2116 261.4721 0001124  84.3667 275.7661 14.58538374736886
PLEIADES 1B             
1 39019U 12068A   26194.49109322  .00000187  00000+0  50049-4 0  9998
2 39019  98.1947 269.1796 0001611  80.1120 280.0261 14.58533958724680
GOKTURK 2               
1 39030U 12073A   26194.52764147  .00000528  00000+0  84349-4 0  9992
2 39030  97.6812  30.6380 0000902  89.3355 270.7958 14.75568621728396
LANDSAT 8               
1 39084U 13008A   26194.46265384  .00000159  00000+0  45368-4 0  9990
2 39084  98.2291 264.2844 0001339  94.3327 265.8025 14.57111172701726
SARAL                   
1 39086U 13009A   26194.50643084  .00000041  00000+0  30971-4 0  9999
2 39086  98.5554  20.7408 0001594 170.9925 189.1288 14.32895533699371
GAOFEN-1                
1 39150U 13018A   26194.49241705  .00000561  00000+0  87570-4 0  9997
2 39150  97.9092 266.0243 0016910 176.5798 183.5531 14.76518068712124
VNREDSAT 1              
1 39160U 13021B   26194.45530419  .00000592  00000+0  11931-3 0  9992
2 39160  97.9074 246.8618 0001630  80.4363 279.7025 14.64883676704136
ARIRANG-5 (KOMPSAT-5)   
1 39227U 13042A   26194.50331294  .00000591  00000+0  46497-4 0  9990
2 39227  97.6211  20.8347 0005577  63.5394 296.6404 15.04523892707812
SKYSAT-A                
1 39418U 13066C   26193.65279623  .00001555  00000+0  91024-4 0  9997
2 39418  97.3804 242.2385 0020249 222.7187 137.2471 15.13106553692338
DUBAISAT-2              
1 39419U 13066D   26194.50646396  .00003022  00000+0  18778-3 0  9993
2 39419  97.4572 183.9650 0009668 309.6146  50.4229 15.10370783690363
GPM-CORE                
1 39574U 14009C   26194.49261454  .00003427  00000+0  77573-4 0  9997
2 39574  64.9693 219.9929 0010989 261.4894  98.5001 15.45030674701870
SENTINEL-1A             
1 39634U 14016A   26194.49318742  .00000361  00000+0  86306-4 0  9993
2 39634  98.1781 201.6419 0001431  86.1739 273.9624 14.59201633653851
KAZEOSAT 1              
1 39731U 14024A   26194.45749106  .00000263  00000+0  93216-4 0  9997
2 39731  98.3205 266.2498 0001255  82.3047 277.8286 14.42037448642342
ALOS-2                  
1 39766U 14029A   26194.51598295  .00001096  00000+0  15366-3 0  9992
2 39766  97.9231 291.3036 0001617  93.5701 266.5695 14.79472913655471
KAZEOSAT 2              
1 40010U 14033A   26194.50030948  .00000440  00000+0  56784-4 0  9998
2 40010  97.5397  32.7209 0007343 226.0036 134.0576 14.85498605652869
