OBJECT_NAME,OBJECT_ID,EPOCH,MEAN_MOTION,ECCENTRICITY,INCLINATION,RA_OF_ASC_NODE,ARG_OF_PERICENTER,MEAN_ANOMALY,EPHEMERIS_TYPE,CLASSIFICATION_TYPE,NORAD_CAT_ID,ELEMENT_SET_NO,REV_AT_EPOCH,BSTAR,MEAN_MOTION_DOT,MEAN_MOTION_DDOT
OCEANSAT-2,2009-051A,2026-07-13T12:09:15.137280,13.99656213,.0017234,98.2319,178.7302,158.3586,201.8313,0,U,35931,999,88301,-.58533E-4,-.123E-5,0
WORLDVIEW-2 (WV-2),2009-055A,2026-07-13T11:12:51.505056,14.37906614,.0005246,98.4757,267.5591,134.0618,226.1001,0,U,35946,999,87942,.25432E-4,.33E-6,0
SMOS,2009-059A,2026-07-13T11:00:55.034784,14.39735473,.0001141,98.4427,21.4088,95.9722,264.1596,0,U,36036,999,87723,.61579E-4,.149E-5,0
YAOGAN-7,2009-069A,2026-07-13T03:40:04.838592,14.78034391,.00236247,98.0036,79.8556,318.2451,41.6956,0,U,36110,999,89346,.39107253E-4,.23E-5,0
TANDEM-X,2010-030A,2026-07-07T11:29:58.986816,15.19154052,.0001887,97.4457,195.8973,94.3019,265.8431,0,U,36605,999,88972,.21566E-4,.386E-5,0
CARTOSAT-2B,2010-035A,2026-07-13T11:03:19.270944,14.78617577,.001259,97.9947,244.8402,104.2323,256.0287,0,U,36795,999,86373,.96168E-4,.652E-5,0
YAOGAN-10,2010-038A,2026-07-13T12:09:32.664384,14.85425926,.0001595,97.8972,217.7008,83.5669,75.6864,0,U,36834,999,86111,.13966E-3,.1149E-4,0
COSMO-SKYMED 4,2010-060A,2026-07-13T12:04:02.597376,14.82147262,.0001497,97.8890,17.7220,86.0401,274.0983,0,U,37216,999,84846,-.12446E-4,-.151E-5,0
RESOURCESAT-2,2011-015A,2026-07-13T11:34:54.096384,14.21605639,.0011501,98.7633,261.7411,175.8884,184.2390,0,U,37387,999,78991,.36018E-4,.35E-6,0
HAIYANG-2A,2011-043A,2026-07-13T07:50:35.151936,13.73482656,.0002847,99.3398,196.4058,35.8329,324.3010,0,U,37781,999,75024,.41789E-3,.345E-5,0
RASAT,2011-044D,2026-07-13T13:14:37.183200,14.68190797,.002189,98.0584,285.5467,107.5902,310.5252,0,U,37791,999,79705,.47038E-5,-.22E-6,0
SRMSAT,2011-058D,2026-07-13T10:56:57.364800,14.11580880,.0011811,19.9713,260.4725,132.1672,338.6137,0,U,37841,999,76153,.42889E-4,.344E-5,0
PLEIADES 1A,2011-076F,2026-07-13T11:32:59.441856,14.58546710,.0001715,98.1976,269.2297,81.2560,45.3678,0,U,38012,999,77582,.6397E-4,.252E-5,0
ZIYUAN 1-02C (ZY 1-02C),2011-079A,2026-07-13T12:32:06.910944,14.38235960,.0005477,98.4069,261.2791,220.3981,253.1944,0,U,38038,999,76299,.20266E-3,.573E-5,0
ARIRANG-3 (KOMPSAT-3),2012-025B,2026-07-13T12:21:47.543904,14.62228176,.0006318,98.1184,151.5231,43.2876,316.8821,0,U,38338,999,75519,.46286E-4,.187E-5,0
EXACTVIEW-1 (ADS-1B),2012-039C,2026-07-12T20:52:01.767360,14.24991882,.00119506,98.9801,311.8429,97.5787,262.6750,0,U,38709,999,72636,.33754437E-4,.33E-6,0
SPOT 6,2012-047A,2026-07-13T11:20:24.271296,14.58538374,.0001124,98.2116,261.4721,84.3667,275.7661,0,U,38755,999,73688,.49267E-4,.183E-5,0
PLEIADES 1B,2012-068A,2026-07-13T11:47:10.454208,14.58533958,.0001611,98.1947,269.1796,80.1120,280.0261,0,U,39019,999,72468,.50049E-4,.187E-5,0
GOKTURK 2,2012-073A,2026-07-13T12:39:48.223008,14.75568621,.0000902,97.6812,30.6380,89.3355,270.7958,0,U,39030,999,72839,.84349E-4,.528E-5,0
LANDSAT 8,2013-008A,2026-07-13T11:06:13.291776,14.57111172,.0001339,98.2291,264.2844,94.3327,265.8025,0,U,39084,999,70172,.45368E-4,.159E-5,0
SARAL,2013-009A,2026-07-13T12:09:15.624576,14.32895533,.0001594,98.5554,20.7408,170.9925,189.1288,0,U,39086,999,69937,.30971E-4,.41E-6,0
GAOFEN-1,2013-018A,2026-07-13T11:49:04.833120,14.76518068,.001691,97.9092,266.0243,176.5798,183.5531,0,U,39150,999,71212,.8757E-4,.561E-5,0
VNREDSAT 1,2013-021B,2026-07-13T10:55:38.282016,14.64883676,.000163,97.9074,246.8618,80.4363,279.7025,0,U,39160,999,70413,.11931E-3,.592E-5,0
ARIRANG-5 (KOMPSAT-5),2013-042A,2026-07-13T12:04:46.238016,15.04523892,.0005577,97.6211,20.8347,63.5394,296.6404,0,U,39227,999,70781,.46497E-4,.591E-5,0
SKYSAT-A,2013-066C,2026-07-12T15:40:01.594272,15.13106553,.00202499,97.3804,242.2385,222.7187,137.2471,0,U,39418,999,69233,.91024348E-4,.1555E-4,0
DUBAISAT-2,2013-066D,2026-07-13T12:09:18.486144,15.10370783,.0009668,97.4572,183.9650,309.6146,50.4229,0,U,39419,999,69036,.18778E-3,.3022E-4,0
GPM-CORE,2014-009C,2026-07-13T11:49:21.896256,15.45030674,.0010989,64.9693,219.9929,261.4894,98.5001,0,U,39574,999,70187,.77573E-4,.3427E-4,0
SENTINEL-1A,2014-016A,2026-07-13T11:50:11.393088,14.59201633,.0001431,98.1781,201.6419,86.1739,273.9624,0,U,39634,999,65385,.86306E-4,.361E-5,0
KAZEOSAT 1,2014-024A,2026-07-13T10:58:47.227584,14.42037448,.0001255,98.3205,266.2498,82.3047,277.8286,0,U,39731,999,64234,.93216E-4,.263E-5,0
ALOS-2,2014-029A,2026-07-13T12:23:00.926880,14.79472913,.0001617,97.9231,291.3036,93.5701,266.5695,0,U,39766,999,65547,.15366E-3,.1096E-4,0
KAZEOSAT 2,2014-033A,2026-07-13T12:00:26.739072,14.85498605,.0007343,97.5397,32.7209,226.0036,134.0576,0,U,40010,999,65286,.56784E-4,.44E-5,0
